CTC1_L_00300016-03
1 53802U 24646LE  26037.47804398  .00000000  00000+0  00000-0 0  9990
2 53802  65.0000 180.0000 0000000   0.0000   0.0000 14.70334339    18
CTC1_L_00300016-04
1 53803U 22647AB  26037.47804398  .00000000  00000+0  00000-0 0  9990
2 53803  65.0000 180.0000 0000000   0.0000  90.0000 14.70334339    18
CTC1_L_00300017-01
1 53804U 22159UI  26037.47804398  .00000000  00000+0  00000-0 0  9999
2 53804  65.0000 192.0000 0000000   0.0000 192.0000 14.70334339    15
CTC1_L_00300017-02
1 53805U 25170TG  26037.47804398  .00000000  00000+0  00000-0 0  9996
2 53805  65.0000 192.0000 0000000   0.0000 282.0000 14.70334339    16
CTC1_L_00300017-03
1 53806U 25877EP  26037.47804398  .00000000  00000+0  00000-0 0  9991
2 53806  65.0000 192.0000 0000000   0.0000  12.0000 14.70334339    18
CTC1_L_00300017-04
1 53807U 24495YK  26037.47804398  .00000000  00000+0  00000-0 0  9997
2 53807  65.0000 192.0000 0000000   0.0000 102.0000 14.70334339    19
CTC1_L_00300018-01
1 53808U 24311WY  26037.47804398  .00000000  00000+0  00000-0 0  9995
2 53808  65.0000 204.0000 0000000   0.0000 204.0000 14.70334339    17
CTC1_L_00300018-02
1 53809U 23154PJ  26037.47804398  .00000000  00000+0  00000-0 0  9990
2 53809  65.0000 204.0000 0000000   0.0000 294.0000 14.70334339    17
CTC1_L_00300018-03
1 53810U 22171OQ  26037.47804398  .00000000  00000+0  00000-0 0  9990
2 53810  65.0000 204.0000 0000000   0.0000  24.0000 14.70334339    10
CTC1_L_00300018-04
1 53811U 23031EF  26037.47804398  .00000000  00000+0  00000-0 0  9997
2 53811  65.0000 204.0000 0000000   0.0000 114.0000 14.70334339    11
CTC1_L_00300019-01
1 53812U 23054SL  26037.47804398  .00000000  00000+0  00000-0 0  9993
2 53812  65.0000 216.0000 0000000   0.0000 216.0000 14.70334339    18
CTC1_L_00300019-02
1 53813U 25876QW  26037.47804398  .00000000  00000+0  00000-0 0  9998
2 53813  65.0000 216.0000 0000000   0.0000 306.0000 14.70334339    19
CTC1_L_00300019-03
1 53814U 25890EH  26037.47804398  .00000000  00000+0  00000-0 0  9995
2 53814  65.0000 216.0000 0000000   0.0000  36.0000 14.70334339    10
CTC1_L_00300019-04
1 53815U 23275WP  26037.47804398  .00000000  00000+0  00000-0 0  9991
2 53815  65.0000 216.0000 0000000   0.0000 126.0000 14.70334339    11
CTC1_L_00300020-01
1 53816U 24856KM  26037.47804398  .00000000  00000+0  00000-0 0  9998
2 53816  65.0000 228.0000 0000000   0.0000 228.0000 14.70334339    18
CTC1_L_00300020-02
1 53817U 24799EK  26037.47804398  .00000000  00000+0  00000-0 0  9995
2 53817  65.0000 228.0000 0000000   0.0000 318.0000 14.70334339    19
CTC1_L_00300020-03
1 53818U 25514ME  26037.47804398  .00000000  00000+0  00000-0 0  9992
2 53818  65.0000 228.0000 0000000   0.0000  48.0000 14.70334339    10
CTC1_L_00300020-04
1 53819U 25712QH  26037.47804398  .00000000  00000+0  00000-0 0  9993
2 53819  65.0000 228.0000 0000000   0.0000 138.0000 14.70334339    11
CTC1_L_00300021-01
1 53820U 25101DI  26037.47804398  .00000000  00000+0  00000-0 0  9997
2 53820  65.0000 240.0000 0000000   0.0000 240.0000 14.70334339    11
CTC1_L_00300021-02
1 53821U 26072AY  26037.47804398  .00000000  00000+0  00000-0 0  9996
2 53821  65.0000 240.0000 0000000   0.0000 330.0000 14.70334339    12
CTC1_L_00300021-03
1 53822U 26457EU  26037.47804398  .00000000  00000+0  00000-0 0  9994
2 53822  65.0000 240.0000 0000000   0.0000  60.0000 14.70334339    13
CTC1_L_00300021-04
1 53823U 22123IO  26037.47804398  .00000000  00000+0  00000-0 0  9991
2 53823  65.0000 240.0000 0000000   0.0000 150.0000 14.70334339    14
CTC1_L_00300022-01
1 53824U 26311DR  26037.47804398  .00000000  00000+0  00000-0 0  9995
2 53824  65.0000 252.0000 0000000   0.0000 252.0000 14.70334339    11
CTC1_L_00300022-02
1 53825U 22132YK  26037.47804398  .00000000  00000+0  00000-0 0  9993
2 53825  65.0000 252.0000 0000000   0.0000 342.0000 14.70334339    12
CTC1_L_00300022-03
1 53826U 24898HI  26037.47804398  .00000000  00000+0  00000-0 0  9995
2 53826  65.0000 252.0000 0000000   0.0000  72.0000 14.70334339    13
CTC1_L_00300022-04
1 53827U 24082DQ  26037.47804398  .00000000  00000+0  00000-0 0  9991
2 53827  65.0000 252.0000 0000000   0.0000 162.0000 14.70334339    14
CTC1_L_00300023-01
1 53828U 23512UJ  26037.47804398  .00000000  00000+0  00000-0 0  9999
2 53828  65.0000 264.0000 0000000   0.0000 264.0000 14.70334339    11
CTC1_L_00300023-02
1 53829U 26500AV  26037.47804398  .00000000  00000+0  00000-0 0  9990
2 53829  65.0000 264.0000 0000000   0.0000 354.0000 14.70334339    12
CTC1_L_00300023-03
1 53830U 25657JX  26037.47804398  .00000000  00000+0  00000-0 0  9994
2 53830  65.0000 264.0000 0000000   0.0000  84.0000 14.70334339    14
CTC1_L_00300023-04
1 53831U 23343CU  26037.47804398  .00000000  00000+0  00000-0 0  9995
2 53831  65.0000 264.0000 0000000   0.0000 174.0000 14.70334339    15
CTC1_L_00300024-01
1 53832U 22099HE  26037.47804398  .00000000  00000+0  00000-0 0  9993
2 53832  65.0000 276.0000 0000000   0.0000 276.0000 14.70334339    12
CTC1_L_00300024-02
1 53833U 24834LG  26037.47804398  .00000000  00000+0  00000-0 0  9993
2 53833  65.0000 276.0000 0000000   0.0000   6.0000 14.70334339    14
CTC1_L_00300024-03
1 53834U 26210QI  26037.47804398  .00000000  00000+0  00000-0 0  9994
2 53834  65.0000 276.0000 0000000   0.0000  96.0000 14.70334339    14
CTC1_L_00300024-04
1 53835U 23263YJ  26037.47804398  .00000000  00000+0  00000-0 0  9990
2 53835  65.0000 276.0000 0000000   0.0000 186.0000 14.70334339    15
CTC1_L_00300025-01
1 53836U 22132GC  26037.47804398  .00000000  00000+0  00000-0 0  9995
2 53836  65.0000 288.0000 0000000   0.0000 288.0000 14.70334339    12
CTC1_L_00300025-02
1 53837U 22140UJ  26037.47804398  .00000000  00000+0  00000-0 0  9995
2 53837  65.0000 288.0000 0000000   0.0000  18.0000 14.70334339    14
CTC1_L_00300025-03
1 53838U 25848ZQ  26037.47804398  .00000000  00000+0  00000-0 0  9994
2 53838  65.0000 288.0000 0000000   0.0000 108.0000 14.70334339    15
CTC1_L_00300025-04
1 53839U 26058EZ  26037.47804398  .00000000  00000+0  00000-0 0  9999
2 53839  65.0000 288.0000 0000000   0.0000 198.0000 14.70334339    15
CTC1_L_00300026-01
1 53840U 23050XG  26037.47804398  .00000000  00000+0  00000-0 0  9990
2 53840  65.0000 300.0000 0000000   0.0000 300.0000 14.70334339    17
CTC1_L_00300026-02
1 53841U 23431XN  26037.47804398  .00000000  00000+0  00000-0 0  9994
2 53841  65.0000 300.0000 0000000   0.0000  30.0000 14.70334339    18
CTC1_L_00300026-03
1 53842U 24582VU  26037.47804398  .00000000  00000+0  00000-0 0  9993
2 53842  65.0000 300.0000 0000000   0.0000 120.0000 14.70334339    19
CTC1_L_00300026-04
1 53843U 24935JH  26037.47804398  .00000000  00000+0  00000-0 0  9996
2 53843  65.0000 300.0000 0000000   0.0000 210.0000 14.70334339    10
CTC1_L_00300027-01
1 53844U 25694RT  26037.47804398  .00000000  00000+0  00000-0 0  9990
2 53844  65.0000 312.0000 0000000   0.0000 312.0000 14.70334339    17
CTC1_L_00300027-02
1 53845U 24939L   26037.47804398  .00000000  00000+0  00000-0 0  9992
2 53845  65.0000 312.0000 0000000   0.0000  42.0000 14.70334339    18
CTC1_L_00300027-03
1 53846U 25929ZT  26037.47804398  .00000000  00000+0  00000-0 0  9993
2 53846  65.0000 312.0000 0000000   0.0000 132.0000 14.70334339    19
CTC1_L_00300027-04
1 53847U 25638DI  26037.47804398  .00000000  00000+0  00000-0 0  9991
2 53847  65.0000 312.0000 0000000   0.0000 222.0000 14.70334339    10
CTC1_L_00300028-01
1 53848U 22323U   26037.47804398  .00000000  00000+0  00000-0 0  9990
2 53848  65.0000 324.0000 0000000   0.0000 324.0000 14.70334339    17
CTC1_L_00300028-02
1 53849U 23282LP  26037.47804398  .00000000  00000+0  00000-0 0  9996
2 53849  65.0000 324.0000 0000000   0.0000  54.0000 14.70334339    18
CTC1_L_00300028-03
1 53850U 25345YQ  26037.47804398  .00000000  00000+0  00000-0 0  9990
2 53850  65.0000 324.0000 0000000   0.0000 144.0000 14.70334339    10
CTC1_L_00300028-04
1 53851U 22985EF  26037.47804398  .00000000  00000+0  00000-0 0  9998
2 53851  65.0000 324.0000 0000000   0.0000 234.0000 14.70334339    11
CTC1_L_00300029-01
1 53852U 24311MG  26037.47804398  .00000000  00000+0  00000-0 0  9994
2 53852  65.0000 336.0000 0000000   0.0000 336.0000 14.70334339    18
CTC1_L_00300029-02
1 53853U 23059NC  26037.47804398  .00000000  00000+0  00000-0 0  9993
2 53853  65.0000 336.0000 0000000   0.0000  66.0000 14.70334339    19
CTC1_L_00300029-03
1 53854U 26062UT  26037.47804398  .00000000  00000+0  00000-0 0  9991
2 53854  65.0000 336.0000 0000000   0.0000 156.0000 14.70334339    10
CTC1_L_00300029-04
1 53855U 22641LU  26037.47804398  .00000000  00000+0  00000-0 0  9991
2 53855  65.0000 336.0000 0000000   0.0000 246.0000 14.70334339    11
CTC1_L_00300030-01
1 53856U 22007WQ  26037.47804398  .00000000  00000+0  00000-0 0  9998
2 53856  65.0000 348.0000 0000000   0.0000 348.0000 14.70334339    18
CTC1_L_00300030-02
1 53857U 22808IG  26037.47804398  .00000000  00000+0  00000-0 0  9998
2 53857  65.0000 348.0000 0000000   0.0000  78.0000 14.70334339    19
CTC1_L_00300030-03
1 53858U 25117OV  26037.47804398  .00000000  00000+0  00000-0 0  9995
2 53858  65.0000 348.0000 0000000   0.0000 168.0000 14.70334339    10
CTC1_L_00300030-04
1 53859U 25377LZ  26037.47804398  .00000000  00000+0  00000-0 0  9994
2 53859  65.0000 348.0000 0000000   0.0000 258.0000 14.70334339    11
